NORAD_CAT_ID,OBJECT_NAME,OBJECT_TYPE,EPOCH,MEAN_MOTION,ECCENTRICITY,INCLINATION,RA_OF_ASC_NODE,ARG_OF_PERICENTER,MEAN_ANOMALY,BSTAR,MEAN_MOTION_DOT,MEAN_MOTION_DDOT,TLE_LINE0,TLE_LINE1,TLE_LINE2,SEMIMAJOR_AXIS,PERIOD,APOGEE,PERIGEE,DECAYED
51144.0,STARLINK-3185,PAYLOAD,2022-10-27 08:32:39,15.08821944,0.0001829,53.2191,57.8275,39.8518,320.2609,1.8415e-05,5e-08,0.0,0 STARLINK-3185,1 51144U 22005AS  22300.35600851  .00000005  00000-0  18415-4 0  9997,2 51144  53.2191  57.8275 0001829  39.8518 320.2609 15.08821944 43153,6917.936,95.439,541.066,538.535,0.0
51144.0,STARLINK-3185,PAYLOAD,2022-10-27 14:54:11,15.08826923,0.0001855999999999,53.2185,56.6375,40.6031,319.5099,-2.6339e-05,-7.07e-06,0.0,0 STARLINK-3185,1 51144U 22005AS  22300.62096972 -.00000707  00000-0 -26339-4 0  9995,2 51144  53.2185  56.6375 0001856  40.6031 319.5099 15.08826923 43194,6917.92,95.438,541.069,538.501,0.0
51144.0,STARLINK-3185,PAYLOAD,2022-10-27 19:40:19,15.088431900000002,0.0001781,53.2187,55.7454,41.6986,318.4142,0.00010197,1.335e-05,0.0,0 STARLINK-3185,1 51144U 22005AS  22300.81967448  .00001335  00000-0  10197-3 0  9991,2 51144  53.2187  55.7454 0001781  41.6986 318.4142 15.08843190 44330,6917.871,95.437,540.9680000000002,538.504,0.0
51144.0,STARLINK-3185,PAYLOAD,2022-10-28 13:09:33,15.0884962,0.0002413,53.2189,52.4715,73.7003,286.4255,0.00018708,2.691e-05,0.0,0 STARLINK-3185,1 51144U 22005AS  22301.54830643  .00002691  00000-0  18708-3 0  9990,2 51144  53.2189  52.4715 0002413  73.7003 286.4255 15.08849620 43337,6917.851,95.437,541.385,538.047,0.0
51144.0,STARLINK-3185,PAYLOAD,2022-10-28 17:55:43,15.08834093,0.0002123,53.2181,51.5846,41.5335,318.5818,0.00037634,5.705e-05,0.0,0 STARLINK-3185,1 51144U 22005AS  22301.74703314  .00005705  00000-0  37634-3 0  9994,2 51144  53.2181  51.5846 0002123  41.5335 318.5818 15.08834093 43366,6917.898,95.438,541.232,538.295,0.0
51144.0,STARLINK-3185,PAYLOAD,2022-10-29 00:17:16,15.08831258,0.0002046999999999,53.2181,50.3951,45.0388,315.077,0.00033751,5.086e-05,0.0,0 STARLINK-3185,1 51144U 22005AS  22302.01199779  .00005086  00000-0  33751-3 0  9997,2 51144  53.2181  50.3951 0002047  45.0388 315.0770 15.08831258 43406,6917.906999999997,95.438,541.188,538.356,0.0
51144.0,STARLINK-3185,PAYLOAD,2022-10-29 16:11:06,15.08855966,0.000202,53.2181,47.4209,37.5888,322.5245,7.883e-05,9.67e-06,0.0,0 STARLINK-3185,1 51144U 22005AS  22302.67438572  .00000967  00000-0  78830-4 0  9997,2 51144  53.2181  47.4209 0002020  37.5888 322.5245 15.08855966 44617,6917.831999999999,95.437,541.094,538.299,0.0
51144.0,STARLINK-3185,PAYLOAD,2022-10-30 11:15:44,15.08853763,0.0002046999999999,53.2186,43.8524,38.9467,321.1673,-4.6719e-06,-3.63e-06,0.0,0 STARLINK-3185,1 51144U 22005AS  22303.46926389 -.00000363  00000-0 -46719-5 0  9997,2 51144  53.2186  43.8524 0002047  38.9467 321.1673 15.08853763 43622,6917.8380000000025,95.437,541.119,538.2869999999998,0.0
51144.0,STARLINK-3185,PAYLOAD,2022-10-30 19:12:40,15.08846616,0.0002046999999999,53.2182,42.3657,39.7457,320.3684,-6.9231e-05,-1.39e-05,0.0,0 STARLINK-3185,1 51144U 22005AS  22303.80046748 -.00001390  00000-0 -69231-4 0  9991,2 51144  53.2182  42.3657 0002047  39.7457 320.3684 15.08846616 43674,6917.86,95.437,541.141,538.309,0.0
51144.0,STARLINK-3185,PAYLOAD,2022-10-31 09:31:09,15.08836448,0.000206,53.219,39.6895,40.679,319.4356,-5.7113e-05,-1.197e-05,0.0,0 STARLINK-3185,1 51144U 22005AS  22304.39663301 -.00001197  00000-0 -57113-4 0  9997,2 51144  53.2190  39.6895 0002060  40.6790 319.4356 15.08836448 43769,6917.891,95.438,541.181,538.331,0.0
51144.0,STARLINK-3185,PAYLOAD,2022-10-31 15:52:41,15.08841327,0.0001983,53.22,38.5013,47.4056,312.7103,-3.8507e-05,-9.01e-06,0.0,0 STARLINK-3185,1 51144U 22005AS  22304.66158969 -.00000901  00000-0 -38507-4 0  9994,2 51144  53.2200  38.5013 0001983  47.4056 312.7103 15.08841327 44910,6917.876,95.437,541.113,538.37,0.0
51144.0,STARLINK-3185,PAYLOAD,2022-11-01 12:32:41,15.08841201,0.000199,53.2193,34.6341,35.4438,324.6686,2.1827e-05,5.9e-07,0.0,0 STARLINK-3185,1 51144U 22005AS  22305.52270712  .00000059  00000-0  21827-4 0  9990,2 51144  53.2193  34.6341 0001990  35.4438 324.6686 15.08841201 43931,6917.877,95.437,541.118,538.365,0.0
51144.0,STARLINK-3185,PAYLOAD,2022-11-01 15:43:28,15.08841504,0.0002301,53.219,34.0403,39.1906,320.9253,0.00010271,1.347e-05,0.0,0 STARLINK-3185,1 51144U 22005AS  22305.65518527  .00001347  00000-0  10271-3 0  9994,2 51144  53.2190  34.0403 0002301  39.1906 320.9253 15.08841504 43956,6917.876,95.437,541.3330000000002,538.149,0.0
51144.0,STARLINK-3185,PAYLOAD,2022-11-02 12:23:30,15.08821684,0.000213,53.2204,30.1767,38.077,322.0372,-3.5157e-05,-8.47e-06,0.0,0 STARLINK-3185,1 51144U 22005AS  22306.51632235 -.00000847  00000-0 -35157-4 0  9990,2 51144  53.2204  30.1767 0002130  38.0770 322.0372 15.08821684 44086,6917.936,95.439,541.275,538.328,0.0
51144.0,STARLINK-3185,PAYLOAD,2022-11-02 15:34:16,15.08823347,0.0002172,53.2191,29.5808,35.7505,324.3633,-8.307200000000001e-05,-1.6100000000000002e-05,0.0,0 STARLINK-3185,1 51144U 22005AS  22306.64880389 -.00001610  00000-0 -83072-4 0  9997,2 51144  53.2191  29.5808 0002172  35.7505 324.3633 15.08823347 44101,6917.931,95.439,541.299,538.294,0.0
51144.0,STARLINK-3185,PAYLOAD,2022-11-03 10:38:52,15.08846327,0.0002148,53.2179,26.0109,33.6148,326.498,0.00010939,1.453e-05,0.0,0 STARLINK-3185,1 51144U 22005AS  22307.44366817  .00001453  00000-0  10939-3 0  9995,2 51144  53.2179  26.0109 0002148  33.6148 326.4980 15.08846327 45333,6917.861,95.437,541.212,538.24,0.0
51144.0,STARLINK-3185,PAYLOAD,2022-11-03 17:00:25,15.08843887,0.0002286,53.2187,24.823,37.8151,322.3001,9.3337e-05,1.198e-05,0.0,0 STARLINK-3185,1 51144U 22005AS  22307.70863042  .00001198  00000-0  93337-4 0  9996,2 51144  53.2187  24.8230 0002286  37.8151 322.3001 15.08843887 44264,6917.869000000002,95.437,541.315,538.1519999999998,0.0
51144.0,STARLINK-3185,PAYLOAD,2022-11-04 08:54:17,15.08836241,0.0002177,53.2184,21.8486,33.7037,326.4093,0.00012353,1.678e-05,0.0,0 STARLINK-3185,1 51144U 22005AS  22308.37103266  .00001678  00000-0  12353-3 0  9996,2 51144  53.2184  21.8486 0002177  33.7037 326.4093 15.08836241 45474,6917.892,95.438,541.263,538.251,0.0
51144.0,STARLINK-3185,PAYLOAD,2022-11-04 12:05:03,15.08835347,0.0002206,53.2186,21.2545,35.1061,325.0076,0.00018808,2.706e-05,0.0,0 STARLINK-3185,1 51144U 22005AS  22308.50351158  .00002706  00000-0  18808-3 0  9990,2 51144  53.2186  21.2545 0002206  35.1061 325.0076 15.08835347 44383,6917.895,95.438,541.286,538.234,0.0
51144.0,STARLINK-3185,PAYLOAD,2022-11-04 13:40:26,15.08835134,0.0002351,53.2186,20.9577,30.1342,329.9785,0.00015392,2.162e-05,0.0,0 STARLINK-3185,1 51144U 22005AS  22308.56975269  .00002162  00000-0  15392-3 0  9992,2 51144  53.2186  20.9577 0002351  30.1342 329.9785 15.08835134 44397,6917.895,95.438,541.387,538.134,0.0
51144.0,STARLINK-3185,PAYLOAD,2022-11-04 21:37:23,15.08821307,0.0002487,53.219,19.466,27.9692,332.1433,-3.6973e-05,-8.76e-06,0.0,0 STARLINK-3185,1 51144U 22005AS  22308.90097021 -.00000876  00000-0 -36973-4 0  9992,2 51144  53.2190  19.4660 0002487  27.9692 332.1433 15.08821307 45552,6917.938,95.439,541.523,538.082,0.0
51144.0,STARLINK-3185,PAYLOAD,2022-11-05 10:20:28,15.08834954,0.0002251,53.2183,17.0912,30.2512,329.861,-5.7778e-05,-1.208e-05,0.0,0 STARLINK-3185,1 51144U 22005AS  22309.43088578 -.00001208  00000-0 -57778-4 0  9994,2 51144  53.2183  17.0912 0002251  30.2512 329.8610 15.08834954 45636,6917.896,95.438,541.318,538.2040000000002,0.0
51144.0,STARLINK-3185,PAYLOAD,2022-11-05 15:06:37,15.08841591,0.0002123,53.2183,16.1984,34.0708,326.0421,3.1447e-06,-2.38e-06,0.0,0 STARLINK-3185,1 51144U 22005AS  22309.62959984 -.00000238  00000-0  31447-5 0  9990,2 51144  53.2183  16.1984 0002123  34.0708 326.0421 15.08841591 45669,6917.876,95.437,541.2090000000002,538.2719999999998,0.0
51144.0,STARLINK-3185,PAYLOAD,2022-11-06 11:46:38,15.08833383,0.0002146,53.2187,12.333,35.1052,325.0081,2.1974e-05,6.1e-07,0.0,0 STARLINK-3185,1 51144U 22005AS  22310.49072708  .00000061  00000-0  21974-4 0  9993,2 51144  53.2187  12.3330 0002146  35.1052 325.0081 15.08833383 44687,6917.901,95.438,541.25,538.281,0.0
51144.0,STARLINK-3185,PAYLOAD,2022-11-06 16:32:48,15.08837035,0.0002003,53.2187,11.4404,37.833,322.2802,4.5053e-05,4.29e-06,0.0,0 STARLINK-3185,1 51144U 22005AS  22310.68944473  .00000429  00000-0  45053-4 0  9993,2 51144  53.2187  11.4404 0002003  37.8330 322.2802 15.08837035 45824,6917.889,95.438,541.14,538.369,0.0
51144.0,STARLINK-3185,PAYLOAD,2022-11-06 21:18:56,15.08844865,0.0002247,53.219,10.5484,32.1807,327.9322,3.9534e-05,3.41e-06,0.0,0 STARLINK-3185,1 51144U 22005AS  22310.88815940  .00000341  00000-0  39534-4 0  9991,2 51144  53.2190  10.5484 0002247  32.1807 327.9322 15.08844865 45854,6917.866,95.437,541.285,538.1759999999998,0.0
51144.0,STARLINK-3185,PAYLOAD,2022-11-07 11:37:26,15.08832686,0.0002086,53.2194,7.8727,34.388000000000005,325.7247,2.2019e-05,6.2e-07,0.0,0 STARLINK-3185,1 51144U 22005AS  22311.48433223  .00000062  00000-0  22019-4 0  9998,2 51144  53.2194   7.8727 0002086  34.3880 325.7247 15.08832686 45943,6917.903,95.438,541.211,538.325,0.0
51144.0,STARLINK-3185,PAYLOAD,2022-11-07 21:09:44,15.08844512,0.0002116,53.219,6.0881,30.5779,329.5336,8.7075e-05,1.098e-05,0.0,0 STARLINK-3185,1 51144U 22005AS  22311.88176333  .00001098  00000-0  87075-4 0  9991,2 51144  53.2190   6.0881 0002116  30.5779 329.5336 15.08844512 46000,6917.8669999999975,95.437,541.195,538.268,0.0
51144.0,STARLINK-3185,PAYLOAD,2022-11-08 06:42:01,15.08857032,0.0002313,53.2186,4.3047,30.8594,329.2533,0.00022625,3.316e-05,0.0,0 STARLINK-3185,1 51144U 22005AS  22312.27918870  .00003316  00000-0  22625-3 0  9999,2 51144  53.2186   4.3047 0002313  30.8594 329.2533 15.08857032 46060,6917.828,95.436,541.293,538.0930000000002,0.0
